[{"OBJECT_NAME":"TOMORROW-S2","OBJECT_ID":"2024-149T","EPOCH":"2026-03-09T18:02:42.746496","MEAN_MOTION":15.30674935,"ECCENTRICITY":0.0001648,"INCLINATION":97.3857,"RA_OF_ASC_NODE":150.0385,"ARG_OF_PERICENTER":234.3331,"MEAN_ANOMALY":125.7757,"EPHEMERIS_TYPE":0,"CLASSIFICATION_TYPE":"U","NORAD_CAT_ID":60485,"ELEMENT_SET_NO":999,"REV_AT_EPOCH":8686,"BSTAR":0.00027683033,"MEAN_MOTION_DOT":8.133e-5,"MEAN_MOTION_DDOT":0},{"OBJECT_NAME":"STARLINK-35656","OBJECT_ID":"2025-257M","EPOCH":"2026-03-09T16:35:23.049600","MEAN_MOTION":15.30200233,"ECCENTRICITY":5.98e-5,"INCLINATION":53.1589,"RA_OF_ASC_NODE":219.8493,"ARG_OF_PERICENTER":71.1473,"MEAN_ANOMALY":288.9592,"EPHEMERIS_TYPE":0,"CLASSIFICATION_TYPE":"U","NORAD_CAT_ID":66391,"ELEMENT_SET_NO":999,"REV_AT_EPOCH":1979,"BSTAR":0.00072513138,"MEAN_MOTION_DOT":0.00021179,"MEAN_MOTION_DDOT":0}]
