TOMORROW-S2             
1 60485U 24149T   26068.75188364  .00008133  00000+0  27683-3 0  9990
2 60485  97.3857 150.0385 0001648 234.3331 125.7757 15.30674935 86869
STARLINK-35656          
1 66391U 25257M   26068.69123899  .00021179  00000+0  72513-3 0  9995
2 66391  53.1589 219.8493 0000598  71.1473 288.9592 15.30200233 19797
